NORAD_CAT_ID,OBJECT_NAME,OBJECT_TYPE,EPOCH,MEAN_MOTION,ECCENTRICITY,INCLINATION,RA_OF_ASC_NODE,ARG_OF_PERICENTER,MEAN_ANOMALY,BSTAR,MEAN_MOTION_DOT,MEAN_MOTION_DDOT,TLE_LINE0,TLE_LINE1,TLE_LINE2,SEMIMAJOR_AXIS,PERIOD,APOGEE,PERIGEE,DECAYED
53628.0,STARLINK-4600,PAYLOAD,2023-10-06 01:49:37,15.08846315,0.0001711,53.2142,249.3529,123.3084,236.8072,0.00019594,2.832e-05,0.0,0 STARLINK-4600,1 53628U 22104AS  23279.07613377  .00002832  00000-0  19594-3 0  9996,2 53628  53.2142 249.3529 0001711 123.3084 236.8072 15.08846315 61374,6917.861,95.437,540.91,538.542,0.0
53628.0,STARLINK-4600,PAYLOAD,2023-10-06 06:35:47,15.08856239,0.0001264,53.2153,248.4641,98.4737,261.6398,0.00074052,0.00011522,0.0,0 STARLINK-4600,1 53628U 22104AS  23279.27485259  .00011522  00000-0  74052-3 0  9990,2 53628  53.2153 248.4641 0001264  98.4737 261.6398 15.08856239 62094,6917.831,95.437,540.57,538.821,0.0
53628.0,STARLINK-4600,PAYLOAD,2023-10-06 22:29:38,15.08855799,0.0002188,53.2167,245.4925,106.6683,253.4549,-0.00022188,-3.819e-05,0.0,0 STARLINK-4600,1 53628U 22104AS  23279.93725582 -.00003819  00000-0 -22188-3 0  9994,2 53628  53.2167 245.4925 0002188 106.6683 253.4549 15.08855799 62197,6917.832,95.437,541.211,538.183,0.0
53628.0,STARLINK-4600,PAYLOAD,2023-10-07 01:40:25,15.08835982,0.0001368,53.2158,244.895,95.7172,264.3976,0.00081476,0.00012701,0.0,0 STARLINK-4600,1 53628U 22104AS  23280.06973842  .00012701  00000-0  81476-3 0  9997,2 53628  53.2158 244.8950 0001368  95.7172 264.3976 15.08835982 61521,6917.893,95.438,540.704,538.811,0.0
53628.0,STARLINK-4600,PAYLOAD,2023-10-07 06:26:34,15.0884418,0.0001355,53.2146,244.004,96.5362,263.5784,0.001173,0.00018432,0.0,0 STARLINK-4600,1 53628U 22104AS  23280.26845843  .00018432  00000-0  11730-2 0  9990,2 53628  53.2146 244.0040 0001355  96.5362 263.5784 15.08844180 62244,6917.868,95.437,540.67,538.795,0.0
53628.0,STARLINK-4600,PAYLOAD,2023-10-07 14:23:30,15.08836257,0.0001425,53.2143,242.5162,86.0746,274.0409,0.00050252,7.718e-05,0.0,0 STARLINK-4600,1 53628U 22104AS  23280.59966119  .00007718  00000-0  50252-3 0  9994,2 53628  53.2143 242.5162 0001425  86.0746 274.0409 15.08836257 61603,6917.892,95.438,540.743,538.771,0.0
53628.0,STARLINK-4600,PAYLOAD,2023-10-08 07:52:44,15.08861869,0.0001263,53.215,239.2473,101.9245,258.1889,0.00097158,0.00015218,0.0,0 STARLINK-4600,1 53628U 22104AS  23281.32829544  .00015218  00000-0  97158-3 0  9996,2 53628  53.2150 239.2473 0001263 101.9245 258.1889 15.08861869 61714,6917.814,95.436,540.552,538.805,0.0
53628.0,STARLINK-4600,PAYLOAD,2023-10-08 14:14:17,15.08850699,0.0001619,53.2147,238.057,90.0056,270.1122,0.00052683,8.109e-05,0.0,0 STARLINK-4600,1 53628U 22104AS  23281.59325841  .00008109  00000-0  52683-3 0  9991,2 53628  53.2147 238.0570 0001619  90.0056 270.1122 15.08850699 61755,6917.848,95.437,540.833,538.593,0.0
53628.0,STARLINK-4600,PAYLOAD,2023-10-08 20:35:49,15.08857749,0.0001661,53.2154,236.8692,93.1154,267.0028,0.00073889,0.00011497,0.0,0 STARLINK-4600,1 53628U 22104AS  23281.85821624  .00011497  00000-0  73889-3 0  9995,2 53628  53.2154 236.8692 0001661  93.1154 267.0028 15.08857749 62488,6917.826,95.436,540.84,538.542,0.0
53628.0,STARLINK-4600,PAYLOAD,2023-10-09 06:08:08,15.08846029,0.0001794,53.2154,235.085,87.9296,272.1902,0.00067236,0.00010431,0.0,0 STARLINK-4600,1 53628U 22104AS  23282.25565792  .00010431  00000-0  67236-3 0  9997,2 53628  53.2154 235.0850 0001794  87.9296 272.1902 15.08846029 61857,6917.862,95.437,540.968,538.486,0.0
53628.0,STARLINK-4600,PAYLOAD,2023-10-09 14:05:04,15.08831953,0.0002106,53.2149,233.5956,84.2606,275.8626,4.053e-06,-2.24e-06,0.0,0 STARLINK-4600,1 53628U 22104AS  23282.58686283 -.00000224  00000-0  40530-5 0  9992,2 53628  53.2149 233.5956 0002106  84.2606 275.8626 15.08831953 61903,6917.905,95.438,541.227,538.313,0.0
53628.0,STARLINK-4600,PAYLOAD,2023-10-10 05:58:56,15.08849648,0.0001582,53.2144,230.6219,84.6383,275.4789,0.00091317,0.00014279,0.0,0 STARLINK-4600,1 53628U 22104AS  23283.24926152  .00014279  00000-0  91317-3 0  9999,2 53628  53.2144 230.6219 0001582  84.6383 275.4789 15.08849648 62009,6917.851,95.437,540.81,538.621,0.0
53628.0,STARLINK-4600,PAYLOAD,2023-10-10 13:55:52,15.0884372,0.0001354,53.2143,229.1356,96.663,263.4516,0.00080759,0.00012589,0.0,0 STARLINK-4600,1 53628U 22104AS  23283.58046367  .00012589  00000-0  80759-3 0  9997,2 53628  53.2143 229.1356 0001354  96.6630 263.4516 15.08843720 62749,6917.869,95.437,540.671,538.797,0.0
53628.0,STARLINK-4600,PAYLOAD,2023-10-10 20:17:24,15.0883799,0.0001615,53.2146,227.9468,96.2486,263.869,0.00051583,7.931e-05,0.0,0 STARLINK-4600,1 53628U 22104AS  23283.84542674  .00007931  00000-0  51583-3 0  9996,2 53628  53.2146 227.9468 0001615  96.2486 263.8690 15.08837990 62780,6917.887,95.438,540.869,538.634,0.0
53628.0,STARLINK-4600,PAYLOAD,2023-10-11 02:38:57,15.08840362,0.0001613,53.2149,226.7576,99.1014,261.0161,0.00032472,4.884e-05,0.0,0 STARLINK-4600,1 53628U 22104AS  23284.11038679  .00004884  00000-0  32472-3 0  9992,2 53628  53.2149 226.7576 0001613  99.1014 261.0161 15.08840362 62136,6917.879,95.438,540.86,538.628,0.0
53628.0,STARLINK-4600,PAYLOAD,2023-10-11 13:46:39,15.08840099,0.000158,53.2156,224.6744,93.6555,266.4618,0.00058461,9.028e-05,0.0,0 STARLINK-4600,1 53628U 22104AS  23284.57406964  .00009028  00000-0  58461-3 0  9999,2 53628  53.2156 224.6744 0001580  93.6555 266.4618 15.08840099 62896,6917.88,95.438,540.838,538.652,0.0
53628.0,STARLINK-4600,PAYLOAD,2023-10-12 05:40:30,15.0885437,0.0001655,53.2161,221.6996,104.8312,255.2864,0.0010118,0.00015858,0.0,0 STARLINK-4600,1 53628U 22104AS  23285.23646847  .00015858  00000-0  10118-2 0  9993,2 53628  53.2161 221.6996 0001655 104.8312 255.2864 15.08854370 62994,6917.836,95.437,540.846,538.557,0.0
53628.0,STARLINK-4600,PAYLOAD,2023-10-13 02:20:31,15.08859835,0.0001363,53.2154,217.8338,86.9959,273.1189,0.00081255,0.00012674,0.0,0 STARLINK-4600,1 53628U 22104AS  23286.09758706  .00012674  00000-0  81255-3 0  9990,2 53628  53.2154 217.8338 0001363  86.9959 273.1189 15.08859835 62435,6917.82,95.436,540.628,538.742,0.0
53628.0,STARLINK-4600,PAYLOAD,2023-10-13 05:31:17,15.0886498,0.0001375,53.2156,217.2391,84.7748,275.3401,0.00097227,0.0001523,0.0,0 STARLINK-4600,1 53628U 22104AS  23286.23006510  .00015230  00000-0  97227-3 0  9992,2 53628  53.2156 217.2391 0001375  84.7748 275.3401 15.08864980 63142,6917.804,95.436,540.62,538.718,0.0
53628.0,STARLINK-4600,PAYLOAD,2023-10-14 02:11:18,15.08866024,0.0001697,53.2168,213.3719,110.152,249.9655,0.001371,0.00021614,0.0,0 STARLINK-4600,1 53628U 22104AS  23287.09118059  .00021614  00000-0  13710-2 0  9996,2 53628  53.2168 213.3719 0001697 110.1520 249.9655 15.08866024 62581,6917.801,95.436,540.84,538.492,0.0
53628.0,STARLINK-4600,PAYLOAD,2023-10-14 11:43:36,15.08852183,0.0001752,53.216,211.5881,66.0657,294.0518,0.00054383,8.38e-05,0.0,0 STARLINK-4600,1 53628U 22104AS  23287.48862020  .00008380  00000-0  54383-3 0  9990,2 53628  53.2160 211.5881 0001752  66.0657 294.0518 15.08852183 63339,6917.843,95.437,540.92,538.496,0.0
53628.0,STARLINK-4600,PAYLOAD,2023-10-14 19:40:33,15.08814835,0.0002064,53.2159,210.1041,81.4696,278.653,-0.00038015,-6.329e-05,0.0,0 STARLINK-4600,1 53628U 22104AS  23287.81982985 -.00006329  00000-0 -38015-3 0  9997,2 53628  53.2159 210.1041 0002064  81.4696 278.6530 15.08814835 62693,6917.957,95.439,541.25,538.394,0.0
53628.0,STARLINK-4600,PAYLOAD,2023-10-15 11:34:25,15.08822709,0.0001558,53.2169,207.1313,91.8602,268.2569,0.00099336,0.00015549,0.0,0 STARLINK-4600,1 53628U 22104AS  23288.48224225  .00015549  00000-0  99336-3 0  9992,2 53628  53.2169 207.1313 0001558  91.8602 268.2569 15.08822709 63485,6917.933,95.439,540.876,538.72,0.0
53628.0,STARLINK-4600,PAYLOAD,2023-10-15 17:55:58,15.0884461,0.0001465,53.2166,205.942,80.3594,279.7563,0.0017054,0.00026961,0.0,0 STARLINK-4600,1 53628U 22104AS  23288.74720268  .00026961  00000-0  17054-2 0  9995,2 53628  53.2166 205.9420 0001465  80.3594 279.7563 15.08844610 62831,6917.866,95.437,540.745,538.718,0.0
53628.0,STARLINK-4600,PAYLOAD,2023-10-16 11:25:11,15.08864939,0.0001248,53.2156,202.6712,93.2851,266.8284,0.00078505,0.00012237,0.0,0 STARLINK-4600,1 53628U 22104AS  23289.47583317  .00012237  00000-0  78505-3 0  9998,2 53628  53.2156 202.6712 0001248  93.2851 266.8284 15.08864939 62941,6917.804,95.436,540.533,538.806,0.0
53628.0,STARLINK-4600,PAYLOAD,2023-10-17 11:15:59,15.08842464,0.0002361,53.215,198.2106,80.2022,279.9236,0.0015753,0.00024874,0.0,0 STARLINK-4600,1 53628U 22104AS  23290.46943336  .00024874  00000-0  15753-2 0  9995,2 53628  53.2150 198.2106 0002361  80.2022 279.9236 15.08842464 63093,6917.873,95.437,541.371,538.105,0.0
53628.0,STARLINK-4600,PAYLOAD,2023-10-18 01:34:27,15.08851549,0.0001379,53.2148,195.5347,86.7383,273.3766,0.0017733,0.00028056,0.0,0 STARLINK-4600,1 53628U 22104AS  23291.06559150  .00028056  00000-0  17733-2 0  9995,2 53628  53.2148 195.5347 0001379  86.7383 273.3766 15.08851549 63872,6917.845,95.437,540.664,538.756,0.0
53628.0,STARLINK-4600,PAYLOAD,2023-10-18 11:06:46,15.08844821,0.0001529,53.2148,193.7522,83.6294,276.4872,0.00086055,0.00013436,0.0,0 STARLINK-4600,1 53628U 22104AS  23291.46303246  .00013436  00000-0  86055-3 0  9992,2 53628  53.2148 193.7522 0001529  83.6294 276.4872 15.08844821 63249,6917.866,95.437,540.788,538.673,0.0
53628.0,STARLINK-4600,PAYLOAD,2023-10-18 20:39:04,15.08848885,0.0001023,53.2153,191.9651,103.1174,256.9932,0.0007716,0.00012016,0.0,0 STARLINK-4600,1 53628U 22104AS  23291.86046996  .00012016  00000-0  77160-3 0  9992,2 53628  53.2153 191.9651 0001023 103.1174 256.9932 15.08848885 63998,6917.853,95.437,540.426,539.011,0.0
53628.0,STARLINK-4600,PAYLOAD,2023-10-19 03:00:36,15.08864236,0.000175,53.2143,190.7735,109.1699,250.9483,0.0011301,0.00017755,0.0,0 STARLINK-4600,1 53628U 22104AS  23292.12542724  .00017755  00000-0  11301-2 0  9991,2 53628  53.2143 190.7735 0001750 109.1699 250.9483 15.08864236 64031,6917.806,95.436,540.882,538.461,0.0
